{"type": "FeatureCollection", "features": [ {"type": "Feature", "properties": {"norad_id": 66737, "name": "FLOCK 4H-34", "group": "last-30-days", "lat": 72.82493010212765, "lon": -84.4442875643702, "alt_km": 507.98862474921316, "timestamp": "2025-12-24T22:42:20.745410+00:00", "meta": {"OBJECT_NAME": "FLOCK 4H-34", "OBJECT_ID": "2025-276BZ", "EPOCH": "2025-12-23T20:54:55.278432", "MEAN_MOTION": 15.17562953, "ECCENTRICITY": 0.0002457, "INCLINATION": 97.4431, "RA_OF_ASC_NODE": 69.4773, "ARG_OF_PERICENTER": 51.6333, "MEAN_ANOMALY": 308.5121, "EPHEMERIS_TYPE": 0, "CLASSIFICATION_TYPE": "U", "NORAD_CAT_ID": 66737, "ELEMENT_SET_NO": 999, "REV_AT_EPOCH": 306, "BSTAR": -0.020844, "MEAN_MOTION_DOT": -0.00396416, "MEAN_MOTION_DDOT": 0}, "tle": {"line1": "1 66737U 25276BZ  25357.87147313 -.00396416  00000+0 -20844-1 0  9996", "line2": "2 66737  97.4431  69.4773 0002457  51.6333 308.5121 15.17562953  3067"}}, "geometry": {"type": "Point", "coordinates": [-84.4442875643702, 72.82493010212765]}}, {"type": "Feature", "properties": {"norad_id": 66738, "name": "FLOCK 4H-35", "group": "last-30-days", "lat": 59.69100232583367, "lon": -96.55533667082062, "alt_km": 503.64334575795147, "timestamp": "2025-12-24T22:42:20.745422+00:00", "meta": {"OBJECT_NAME": "FLOCK 4H-35", "OBJECT_ID": "2025-276CA", "EPOCH": "2025-12-24T06:21:50.925600", "MEAN_MOTION": 15.18264291, "ECCENTRICITY": 0.00025861, "INCLINATION": 97.4402, "RA_OF_ASC_NODE": 69.8571, "ARG_OF_PERICENTER": 144.3482, "MEAN_ANOMALY": 215.7925, "EPHEMERIS_TYPE": 0, "CLASSIFICATION_TYPE": "U", "NORAD_CAT_ID": 66738, "ELEMENT_SET_NO": 999, "REV_AT_EPOCH": 316, "BSTAR": 0.00055094668, "MEAN_MOTION_DOT": 0.00011229, "MEAN_MOTION_DDOT": 0}, "tle": {"line1": "1 66738U 25276CA  25358.26517275  .00011229  00000+0  55095-3 0  9991", "line2": "2 66738  97.4402  69.8571 0002586 144.3482 215.7925 15.18264291  3161"}}, "geometry": {"type": "Point", "coordinates": [-96.55533667082062, 59.69100232583367]}}, {"type": "Feature", "properties": {"norad_id": 66739, "name": "FLOCK 4H-36", "group": "last-30-days", "lat": 80.78008378166103, "lon": -55.80001604954414, "alt_km": 504.11453365979014, "timestamp": "2025-12-24T22:42:20.745436+00:00", "meta": {"OBJECT_NAME": "FLOCK 4H-36", "OBJECT_ID": "2025-276CB", "EPOCH": "2025-12-24T04:53:04.750944", "MEAN_MOTION": 15.18013949, "ECCENTRICITY": 0.00024693, "INCLINATION": 97.4447, "RA_OF_ASC_NODE": 69.8039, "ARG_OF_PERICENTER": 178.8359, "MEAN_ANOMALY": 181.2881, "EPHEMERIS_TYPE": 0, "CLASSIFICATION_TYPE": "U", "NORAD_CAT_ID": 66739, "ELEMENT_SET_NO": 999, "REV_AT_EPOCH": 386, "BSTAR": 0.00056181208, "MEAN_MOTION_DOT": 0.0001137, "MEAN_MOTION_DDOT": 0}, "tle": {"line1": "1 66739U 25276CB  25358.20352721  .00011370  00000+0  56181-3 0  9993", "line2": "2 66739  97.4447  69.8039 0002469 178.8359 181.2881 15.18013949  3862"}}, "geometry": {"type": "Point", "coordinates": [-55.80001604954414, 80.78008378166103]}}, {"type": "Feature", "properties": {"norad_id": 66740, "name": "TRANSPORTER-15CC", "group": "last-30-days", "lat": 66.0986728459464, "lon": 53.36061104531379, "alt_km": 507.61751783604905, "timestamp": "2025-12-24T22:42:20.745446+00:00", "meta": {"OBJECT_NAME": "TRANSPORTER-15CC", "OBJECT_ID": "2025-276CC", "EPOCH": "2025-12-24T05:00:18.686304", "MEAN_MOTION": 15.17734246, "ECCENTRICITY": 0.00021537, "INCLINATION": 97.4409, "RA_OF_ASC_NODE": 69.7879, "ARG_OF_PERICENTER": 230.1216, "MEAN_ANOMALY": 129.9829, "EPHEMERIS_TYPE": 0, "CLASSIFICATION_TYPE": "U", "NORAD_CAT_ID": 66740, "ELEMENT_SET_NO": 999, "REV_AT_EPOCH": 386, "BSTAR": 0.00057513859, "MEAN_MOTION_DOT": 0.00011548, "MEAN_MOTION_DDOT": 0}, "tle": {"line1": "1 66740U 25276CC  25358.20854961  .00011548  00000+0  57514-3 0  9996", "line2": "2 66740  97.4409  69.7879 0002153 230.1216 129.9829 15.17734246  3867"}}, "geometry": {"type": "Point", "coordinates": [53.36061104531379, 66.0986728459464]}}, {"type": "Feature", "properties": {"norad_id": 66741, "name": "TRANSPORTER-15CD", "group": "last-30-days", "lat": 60.30800716512227, "lon": 57.252060837116574, "alt_km": 507.85153087943127, "timestamp": "2025-12-24T22:42:20.745456+00:00", "meta": {"OBJECT_NAME": "TRANSPORTER-15CD", "OBJECT_ID": "2025-276CD", "EPOCH": "2025-12-24T05:01:49.890144", "MEAN_MOTION": 15.1762992, "ECCENTRICITY": 0.00010844, "INCLINATION": 97.4405, "RA_OF_ASC_NODE": 69.778, "ARG_OF_PERICENTER": 220.9124, "MEAN_ANOMALY": 139.2029, "EPHEMERIS_TYPE": 0, "CLASSIFICATION_TYPE": "U", "NORAD_CAT_ID": 66741, "ELEMENT_SET_NO": 999, "REV_AT_EPOCH": 386, "BSTAR": 0.00026141262, "MEAN_MOTION_DOT": 5.193e-05, "MEAN_MOTION_DDOT": 0}, "tle": {"line1": "1 66741U 25276CD  25358.20960521  .00005193  00000+0  26141-3 0  9998", "line2": "2 66741  97.4405  69.7780 0001084 220.9124 139.2029 15.17629920  3860"}}, "geometry": {"type": "Point", "coordinates": [57.252060837116574, 60.30800716512227]}}, {"type": "Feature", "properties": {"norad_id": 66742, "name": "TRANSPORTER-15CE", "group": "last-30-days", "lat": 68.85190301678628, "lon": 50.75857110473669, "alt_km": 506.48983683512324, "timestamp": "2025-12-24T22:42:20.745466+00:00", "meta": {"OBJECT_NAME": "TRANSPORTER-15CE", "OBJECT_ID": "2025-276CE", "EPOCH": "2025-12-24T06:34:27.971040", "MEAN_MOTION": 15.17714476, "ECCENTRICITY": 0.00017669, "INCLINATION": 97.4402, "RA_OF_ASC_NODE": 69.8425, "ARG_OF_PERICENTER": 183.4005, "MEAN_ANOMALY": 176.7217, "EPHEMERIS_TYPE": 0, "CLASSIFICATION_TYPE": "U", "NORAD_CAT_ID": 66742, "ELEMENT_SET_NO": 999, "REV_AT_EPOCH": 387, "BSTAR": 0.00034682356, "MEAN_MOTION_DOT": 6.929e-05, "MEAN_MOTION_DDOT": 0}, "tle": {"line1": "1 66742U 25276CE  25358.27393485  .00006929  00000+0  34682-3 0  9992", "line2": "2 66742  97.4402  69.8425 0001766 183.4005 176.7217 15.17714476  3870"}}, "geometry": {"type": "Point", "coordinates": [50.75857110473669, 68.85190301678628]}}, {"type": "Feature", "properties": {"norad_id": 66743, "name": "TRANSPORTER-15CF", "group": "last-30-days", "lat": 46.346474518207344, "lon": 62.62024230231106, "alt_km": 511.239780380266, "timestamp": "2025-12-24T22:42:20.745476+00:00", "meta": {"OBJECT_NAME": "TRANSPORTER-15CF", "OBJECT_ID": "2025-276CF", "EPOCH": "2025-12-24T03:30:11.110752", "MEAN_MOTION": 15.17157421, "ECCENTRICITY": 9.3e-05, "INCLINATION": 97.439, "RA_OF_ASC_NODE": 69.7064, "ARG_OF_PERICENTER": 131.2576, "MEAN_ANOMALY": 228.8738, "EPHEMERIS_TYPE": 0, "CLASSIFICATION_TYPE": "U", "NORAD_CAT_ID": 66743, "ELEMENT_SET_NO": 999, "REV_AT_EPOCH": 385, "BSTAR": -0.0093067323, "MEAN_MOTION_DOT": -0.00180152, "MEAN_MOTION_DDOT": 0}, "tle": {"line1": "1 66743U 25276CF  25358.14596193 -.00180152  00000+0 -93067-2 0  9994", "line2": "2 66743  97.4390  69.7064 0000930 131.2576 228.8738 15.17157421  3857"}}, "geometry": {"type": "Point", "coordinates": [62.62024230231106, 46.346474518207344]}}, {"type": "Feature", "properties": {"norad_id": 66744, "name": "TRANSPORTER-15CG", "group": "last-30-days", "lat": 64.59036592010708, "lon": 54.62848680809535, "alt_km": 517.7543137724015, "timestamp": "2025-12-24T22:42:20.745488+00:00", "meta": {"OBJECT_NAME": "TRANSPORTER-15CG", "OBJECT_ID": "2025-276CG", "EPOCH": "2025-12-24T05:01:46.588800", "MEAN_MOTION": 15.19333655, "ECCENTRICITY": 0.00241848, "INCLINATION": 97.3868, "RA_OF_ASC_NODE": 69.7569, "ARG_OF_PERICENTER": 234.8178, "MEAN_ANOMALY": 125.0792, "EPHEMERIS_TYPE": 0, "CLASSIFICATION_TYPE": "U", "NORAD_CAT_ID": 66744, "ELEMENT_SET_NO": 999, "REV_AT_EPOCH": 386, "BSTAR": 0.00026598006, "MEAN_MOTION_DOT": 5.594e-05, "MEAN_MOTION_DDOT": 0}, "tle": {"line1": "1 66744U 25276CG  25358.20956700  .00005594  00000+0  26598-3 0  9996", "line2": "2 66744  97.3868  69.7569 0024184 234.8178 125.0792 15.19333655  3868"}}, "geometry": {"type": "Point", "coordinates": [54.62848680809535, 64.59036592010708]}}, {"type": "Feature", "properties": {"norad_id": 66745, "name": "TRANSPORTER-15CH", "group": "last-30-days", "lat": 46.620092464253254, "lon": 62.552112737987265, "alt_km": 510.5860350254334, "timestamp": "2025-12-24T22:42:20.745498+00:00", "meta": {"OBJECT_NAME": "TRANSPORTER-15CH", "OBJECT_ID": "2025-276CH", "EPOCH": "2025-12-23T21:10:36.163200", "MEAN_MOTION": 15.17431623, "ECCENTRICITY": 0.0001515, "INCLINATION": 97.4411, "RA_OF_ASC_NODE": 69.457, "ARG_OF_PERICENTER": 232.1542, "MEAN_ANOMALY": 127.9555, "EPHEMERIS_TYPE": 0, "CLASSIFICATION_TYPE": "U", "NORAD_CAT_ID": 66745, "ELEMENT_SET_NO": 999, "REV_AT_EPOCH": 381, "BSTAR": 0.00022373, "MEAN_MOTION_DOT": 4.409e-05, "MEAN_MOTION_DDOT": 0}, "tle": {"line1": "1 66745U 25276CH  25357.88236300  .00004409  00000+0  22373-3 0  9998", "line2": "2 66745  97.4411  69.4570 0001515 232.1542 127.9555 15.17431623  3817"}}, "geometry": {"type": "Point", "coordinates": [62.552112737987265, 46.620092464253254]}}, {"type": "Feature", "properties": {"norad_id": 66746, "name": "TRANSPORTER-15CJ", "group": "last-30-days", "lat": 51.22046942974399, "lon": 61.1636254287121, "alt_km": 510.5398697636292, "timestamp": "2025-12-24T22:42:20.745508+00:00", "meta": {"OBJECT_NAME": "TRANSPORTER-15CJ", "OBJECT_ID": "2025-276CJ", "EPOCH": "2025-12-23T05:20:14.518464", "MEAN_MOTION": 15.17767855, "ECCENTRICITY": 0.00063526, "INCLINATION": 97.3982, "RA_OF_ASC_NODE": 68.7864, "ARG_OF_PERICENTER": 180.4238, "MEAN_ANOMALY": 179.6992, "EPHEMERIS_TYPE": 0, "CLASSIFICATION_TYPE": "U", "NORAD_CAT_ID": 66746, "ELEMENT_SET_NO": 999, "REV_AT_EPOCH": 371, "BSTAR": -0.0014121211, "MEAN_MOTION_DOT": -0.00028468, "MEAN_MOTION_DDOT": 0}, "tle": {"line1": "1 66746U 25276CJ  25357.22239026 -.00028468  00000+0 -14121-2 0  9999", "line2": "2 66746  97.3982  68.7864 0006352 180.4238 179.6992 15.17767855  3716"}}, "geometry": {"type": "Point", "coordinates": [61.1636254287121, 51.22046942974399]}}]}